SL-8 R/B                
1 15483U 85006B   26194.66447905  .00000129  00000+0  51544-4 0  9997
2 15483  74.0452  29.3382 0019267 272.6326 153.3652 14.37844804172137
SL-12 R/B(2)            
1 15772U 85042D   26194.48544869 -.00000045  00000+0  11484-5 0  9993
2 15772  71.1066 181.9538 0037275 288.6952 206.4049 14.22010720132273
SL-14 R/B               
1 15945U 85069B   26194.62311954  .00000225  00000+0  22575-4 0  9998
2 15945  82.5264 266.5049 0019957 132.1972 228.0943 14.86534523191540
SL-16 R/B               
1 16182U 85097B   26194.54430632  .00000045  00000+0  46656-4 0  9995
2 16182  71.0008 235.5886 0005562  54.9585  52.2506 14.16612350105057
SL-14 R/B               
1 16496U 86006B   26194.36319660  .00000237  00000+0  22387-4 0  9999
2 16496  82.5282 141.4812 0075329 215.0062 144.6192 14.86967488167886
COSMOS 1743             
1 16719U 86034A   26194.37275186  .00039740  00000+0  33696-3 0  9998
2 16719  82.5285 300.8401 0005351 182.2031 177.9208 15.69473510199894
SL-14 R/B               
1 16792U 86046B   26194.41977370  .00000248  00000+0  25694-4 0  9992
2 16792  82.4838 321.3879 0023374 168.7842 191.3901 14.85689769145072
SL-14 R/B               
1 16882U 86055B   26194.54527662  .00000211  00000+0  21490-4 0  9991
2 16882  82.5201   8.3476 0017305 276.2569 142.1040 14.85739615138054
AJISAI (EGS)            
1 16908U 86061A   26194.62842828 -.00000096  00000+0  93041-5 0  9994
2 16908  50.0100  66.0892 0011093 247.8820 144.3207 12.44516657483689
SL-14 R/B               
1 17567U 87024B   26194.47479553  .00000240  00000+0  24439-4 0  9994
2 17567  82.5296 334.5407 0017662 199.5946 160.4594 14.86230978106814
COSMOS 1833             
1 17589U 87027A   26194.65426344  .00000103  00000+0  80786-4 0  9996
2 17589  70.9212  61.2392 0024138  11.1726 348.9926 14.13066181 28116
SL-16 R/B               
1 17590U 87027B   26194.61457658 -.00000006  00000+0  20887-4 0  9995
2 17590  71.0031  11.1370 0007141 283.2504  76.7823 14.17173209 33189
SL-14 R/B               
1 17912U 87038B   26194.46718048  .00000211  00000+0  21513-4 0  9995
2 17912  82.5012 178.3175 0020773 107.4891 252.8597 14.85460782 97909
COSMOS 1844             
1 17973U 87041A   26194.27119578  .00000133  00000+0  93890-4 0  9998
2 17973  70.8997 129.2878 0031444 198.0297 161.9712 14.14580064 21348
SL-14 R/B               
1 18153U 87055B   26194.62390046  .00000199  00000+0  20151-4 0  9996
2 18153  82.4973 230.3067 0019514 320.5682  39.4113 14.85726439 88635
COSMOS 1867             
1 18187U 87060A   26194.61049398 -.00000061  00000+0  14607-4 0  9997
2 18187  65.0119 314.0579 0017118 282.0090  77.9076 14.31518367 37967
SL-14 R/B               
1 18749U 88001B   26194.62780221  .00000214  00000+0  21800-4 0  9997
2 18749  82.5121  76.8977 0018049 176.8911 183.2421 14.85626190 60727
COSMOS 1933             
1 18958U 88020A   26194.32504138  .00001742  00000+0  81997-4 0  9998
2 18958  82.5141 126.5501 0005784 112.1225 248.0624 15.18882205 69294
SL-3 R/B                
1 19046U 88032B   26194.55959189  .00002259  00000+0  10415-3 0  9995
2 19046  97.5268 177.5789 0026353 151.2195 209.0501 15.21024102 71234
SL-16 R/B               
1 19120U 88039B   26194.33275205 -.00000071  00000+0 -10938-4 0  9994
2 19120  71.0123 162.8729 0020733 152.3374 207.8859 14.19631390976215
COSMOS 1953             
1 19210U 88050A   26194.50369950  .00004785  00000+0  16173-3 0  9997
2 19210  82.5060  31.4869 0011652  45.4060 314.8129 15.30323655 57015
SL-8 R/B                
1 19257U 88053B   26194.50199435  .00000127  00000+0  49609-4 0  9997
2 19257  74.0460 240.5503 0019649  26.6543  78.4735 14.38977722994692
COSMOS 1975             
1 19573U 88093A   26194.45447292  .00003971  00000+0  13677-3 0  9998
2 19573  82.5193 351.2709 0012553  87.7925 272.4753 15.29649009 38620
SL-14 R/B               
1 19574U 88093B   26194.33710463  .00000213  00000+0  21618-4 0  9990
2 19574  82.5317 284.0962 0020171 346.6395  79.0021 14.85759423 19672
SL-16 R/B               
1 19650U 88102B   26194.49310561 -.00000183  00000+0 -67981-4 0  9999
2 19650  70.9980 246.7888 0014411 188.2611 171.8277 14.16166996944703
INTERCOSMOS 24          
1 20261U 89080A   26194.62169227  .00000189  00000+0  51426-4 0  9992
2 20261  82.6047  22.4389 1187263   0.5981 359.6230 12.59691567682655
SL-14 R/B               
1 20262U 89080C   26194.16242154  .00000066  00000+0  19255-4 0  9991
2 20262  82.5936  92.6184 1228631 257.9435  88.1663 12.50578237675836
DELTA 1 R/B             
1 20323U 89089B   26194.49777798  .00000145  00000+0  44253-4 0  9995
2 20323  97.0634  21.8455 0070644  85.2297 275.6963 14.50747218913976
ARIANE 40 R/B           
1 20443U 90005H   26194.17219663  .00000110  00000+0  48495-4 0  9999
2 20443  98.2946 250.9785 0010137 179.9827 180.1364 14.39940196910867
DELTA 2 R/B(1)          
1 20453U 90008B   26193.92755865  .00092909  00000+0  57423-3 0  9991
2 20453  35.6002  62.9055 0060055 354.6112   5.3978 15.73246033945753
