OBJECT_NAME,OBJECT_ID,EPOCH,MEAN_MOTION,ECCENTRICITY,INCLINATION,RA_OF_ASC_NODE,ARG_OF_PERICENTER,MEAN_ANOMALY,EPHEMERIS_TYPE,CLASSIFICATION_TYPE,NORAD_CAT_ID,ELEMENT_SET_NO,REV_AT_EPOCH,BSTAR,MEAN_MOTION_DOT,MEAN_MOTION_DDOT
SL-8 R/B,1985-006B,2026-07-13T15:56:50.989920,14.37844804,.00192672,74.0452,29.3382,272.6326,153.3652,0,U,15483,999,17213,.51543668E-4,.129E-5,0
SL-12 R/B(2),1985-042D,2026-07-13T11:39:02.766816,14.22010720,.00372754,71.1066,181.9538,288.6952,206.4049,0,U,15772,999,13227,.1148371E-5,-.45E-6,0
SL-14 R/B,1985-069B,2026-07-13T14:57:17.528256,14.86534523,.00199575,82.5264,266.5049,132.1972,228.0943,0,U,15945,999,19154,.22574949E-4,.225E-5,0
SL-16 R/B,1985-097B,2026-07-13T13:03:48.066048,14.16612350,.00055622,71.0008,235.5886,54.9585,52.2506,0,U,16182,999,10505,.46656119E-4,.45E-6,0
SL-14 R/B,1986-006B,2026-07-13T08:43:00.186240,14.86967488,.00753292,82.5282,141.4812,215.0062,144.6192,0,U,16496,999,16788,.22386605E-4,.237E-5,0
COSMOS 1743,1986-034A,2026-07-13T08:56:45.760704,15.69473510,.00053518,82.5285,300.8401,182.2031,177.9208,0,U,16719,999,19989,.336964E-3,.3974E-3,0
SL-14 R/B,1986-046B,2026-07-13T10:04:28.447680,14.85689769,.00233745,82.4838,321.3879,168.7842,191.3901,0,U,16792,999,14507,.25693939E-4,.248E-5,0
SL-14 R/B,1986-055B,2026-07-13T13:05:11.899968,14.85739615,.00173054,82.5201,8.3476,276.2569,142.1040,0,U,16882,999,13805,.21489522E-4,.211E-5,0
AJISAI (EGS),1986-061A,2026-07-13T15:04:56.203392,12.44516657,.00110936,50.0100,66.0892,247.8820,144.3207,0,U,16908,999,48368,.9304076E-5,-.96E-6,0
SL-14 R/B,1987-024B,2026-07-13T11:23:42.333792,14.86230978,.00176629,82.5296,334.5407,199.5946,160.4594,0,U,17567,999,10681,.24439143E-4,.24E-5,0
COSMOS 1833,1987-027A,2026-07-13T15:42:08.361216,14.13066181,.00241381,70.9212,61.2392,11.1726,348.9926,0,U,17589,999,2811,.80786429E-4,.103E-5,0
SL-16 R/B,1987-027B,2026-07-13T14:44:59.416512,14.17173209,.00071415,71.0031,11.1370,283.2504,76.7823,0,U,17590,999,3318,.20886928E-4,-.6E-7,0
SL-14 R/B,1987-038B,2026-07-13T11:12:44.393472,14.85460782,.00207738,82.5012,178.3175,107.4891,252.8597,0,U,17912,999,9790,.2151258E-4,.211E-5,0
COSMOS 1844,1987-041A,2026-07-13T06:30:31.315392,14.14580064,.0031444,70.8997,129.2878,198.0297,161.9712,0,U,17973,999,2134,.9389E-4,.133E-5,0
SL-14 R/B,1987-055B,2026-07-13T14:58:24.999744,14.85726439,.00195143,82.4973,230.3067,320.5682,39.4113,0,U,18153,999,8863,.20150943E-4,.199E-5,0
COSMOS 1867,1987-060A,2026-07-13T14:39:06.679872,14.31518367,.00171182,65.0119,314.0579,282.0090,77.9076,0,U,18187,999,3796,.14606871E-4,-.61E-6,0
SL-14 R/B,1988-001B,2026-07-13T15:04:02.110944,14.85626190,.00180497,82.5121,76.8977,176.8911,183.2421,0,U,18749,999,6072,.21799866E-4,.214E-5,0
COSMOS 1933,1988-020A,2026-07-13T07:48:03.575232,15.18882205,.0005784,82.5141,126.5501,112.1225,248.0624,0,U,18958,999,6929,.81997444E-4,.1742E-4,0
SL-3 R/B,1988-032B,2026-07-13T13:25:48.739296,15.21024102,.00263533,97.5268,177.5789,151.2195,209.0501,0,U,19046,999,7123,.10415128E-3,.2259E-4,0
SL-16 R/B,1988-039B,2026-07-13T07:59:09.777120,14.19631390,.00207332,71.0123,162.8729,152.3374,207.8859,0,U,19120,999,97621,-.10938145E-4,-.71E-6,0
COSMOS 1953,1988-050A,2026-07-13T12:05:19.636800,15.30323655,.0011652,82.5060,31.4869,45.4060,314.8129,0,U,19210,999,5701,.16172579E-3,.4785E-4,0
SL-8 R/B,1988-053B,2026-07-13T12:02:52.311840,14.38977722,.00196491,74.0460,240.5503,26.6543,78.4735,0,U,19257,999,99469,.49609374E-4,.127E-5,0
COSMOS 1975,1988-093A,2026-07-13T10:54:26.460288,15.29649009,.00125535,82.5193,351.2709,87.7925,272.4753,0,U,19573,999,3862,.13676743E-3,.3971E-4,0
SL-14 R/B,1988-093B,2026-07-13T08:05:25.840032,14.85759423,.00201714,82.5317,284.0962,346.6395,79.0021,0,U,19574,999,1967,.21617696E-4,.213E-5,0
SL-16 R/B,1988-102B,2026-07-13T11:50:04.324704,14.16166996,.00144117,70.9980,246.7888,188.2611,171.8277,0,U,19650,999,94470,-.67980965E-4,-.183E-5,0
INTERCOSMOS 24,1989-080A,2026-07-13T14:55:14.212128,12.59691567,.11872631,82.6047,22.4389,0.5981,359.6230,0,U,20261,999,68265,.51426332E-4,.189E-5,0
SL-14 R/B,1989-080C,2026-07-13T03:53:53.221056,12.50578237,.12286316,82.5936,92.6184,257.9435,88.1663,0,U,20262,999,67583,.19254792E-4,.66E-6,0
DELTA 1 R/B,1989-089B,2026-07-13T11:56:48.017472,14.50747218,.00706448,97.0634,21.8455,85.2297,275.6963,0,U,20323,999,91397,.44253392E-4,.145E-5,0
ARIANE 40 R/B,1990-005H,2026-07-13T04:07:57.788832,14.39940196,.00101378,98.2946,250.9785,179.9827,180.1364,0,U,20443,999,91086,.48495437E-4,.11E-5,0
DELTA 2 R/B(1),1990-008B,2026-07-12T22:15:41.067360,15.73246033,.00600556,35.6002,62.9055,354.6112,5.3978,0,U,20453,999,94575,.57423144E-3,.92909E-3,0
